{
  "links" : {
    "next" : "https://api.nasa.gov/neo/rest/v1/feed?start_date=2010-11-09&end_date=2010-11-09&detailed=true&api_key=t0TVs3DtDT2H8Oy2Zy8m2eVrNsAVKAexjcZXUckd",
    "prev" : "https://api.nasa.gov/neo/rest/v1/feed?start_date=2010-11-07&end_date=2010-11-07&detailed=true&api_key=t0TVs3DtDT2H8Oy2Zy8m2eVrNsAVKAexjcZXUckd",
    "self" : "https://api.nasa.gov/neo/rest/v1/feed?start_date=2010-11-08&end_date=2010-11-08&detailed=true&api_key=t0TVs3DtDT2H8Oy2Zy8m2eVrNsAVKAexjcZXUckd"
  },
  "element_count" : 9,
  "near_earth_objects" : {
    "2010-11-08" : [ {
      "links" : {
        "self" : "https://api.nasa.gov/neo/rest/v1/neo/3550140?api_key=t0TVs3DtDT2H8Oy2Zy8m2eVrNsAVKAexjcZXUckd"
      },
      "neo_reference_id" : "3550140",
      "name" : "(2010 VR)",
      "nasa_jpl_url" : "http://ssd.jpl.nasa.gov/sbdb.cgi?sstr=3550140",
      "absolute_magnitude_h" : 24.5,
      "estimated_diameter" : {
        "kilometers" : {
          "estimated_diameter_min" : 0.0334622374,
          "estimated_diameter_max" : 0.0748238376
        },
        "meters" : {
          "estimated_diameter_min" : 33.4622374455,
          "estimated_diameter_max" : 74.8238376074
        },
        "miles" : {
          "estimated_diameter_min" : 0.0207924639,
          "estimated_diameter_max" : 0.0464933628
        },
        "feet" : {
          "estimated_diameter_min" : 109.7842471007,
          "estimated_diameter_max" : 245.4850393757
        }
      },
      "is_potentially_hazardous_asteroid" : false,
      "close_approach_data" : [ {
        "close_approach_date" : "2010-11-08",
        "epoch_date_close_approach" : 1289203200000,
        "relative_velocity" : {
          "kilometers_per_second" : "11.3528317584",
          "kilometers_per_hour" : "40870.1943301453",
          "miles_per_hour" : "25395.1493603061"
        },
        "miss_distance" : {
          "astronomical" : "0.0595423341",
          "lunar" : "23.1619682312",
          "kilometers" : "8907407",
          "miles" : "5534806"
        },
        "orbiting_body" : "Earth"
      } ],
      "orbital_data" : {
        "orbit_id" : "12",
        "orbit_determination_date" : "2017-04-06 08:55:59",
        "orbit_uncertainty" : "8",
        "minimum_orbit_intersection" : ".0548246",
        "jupiter_tisserand_invariant" : "4.700",
        "epoch_osculation" : "2455505.5",
        "eccentricity" : ".2690681366924573",
        "semi_major_axis" : "1.383199268789707",
        "inclination" : "19.22369694751681",
        "ascending_node_longitude" : "223.8049299381038",
        "orbital_period" : "594.1902933096467",
        "perihelion_distance" : "1.011024418862091",
        "perihelion_argument" : "213.9967842909327",
        "aphelion_distance" : "1.755374118717322",
        "perihelion_time" : "2455537.444046079213",
        "mean_anomaly" : "340.6461722481827",
        "mean_motion" : ".6058665112060245",
        "equinox" : "J2000"
      }
    }, {
      "links" : {
        "self" : "https://api.nasa.gov/neo/rest/v1/neo/3550890?api_key=t0TVs3DtDT2H8Oy2Zy8m2eVrNsAVKAexjcZXUckd"
      },
      "neo_reference_id" : "3550890",
      "name" : "(2010 VM65)",
      "nasa_jpl_url" : "http://ssd.jpl.nasa.gov/sbdb.cgi?sstr=3550890",
      "absolute_magnitude_h" : 23.6,
      "estimated_diameter" : {
        "kilometers" : {
          "estimated_diameter_min" : 0.0506471459,
          "estimated_diameter_max" : 0.1132504611
        },
        "meters" : {
          "estimated_diameter_min" : 50.6471458835,
          "estimated_diameter_max" : 113.2504610618
        },
        "miles" : {
          "estimated_diameter_min" : 0.0314706677,
          "estimated_diameter_max" : 0.0703705522
        },
        "feet" : {
          "estimated_diameter_min" : 166.1651821003,
          "estimated_diameter_max" : 371.5566426699
        }
      },
      "is_potentially_hazardous_asteroid" : false,
      "close_approach_data" : [ {
        "close_approach_date" : "2010-11-08",
        "epoch_date_close_approach" : 1289203200000,
        "relative_velocity" : {
          "kilometers_per_second" : "12.7487890635",
          "kilometers_per_hour" : "45895.6406286914",
          "miles_per_hour" : "28517.7662562"
        },
        "miss_distance" : {
          "astronomical" : "0.0656362476",
          "lunar" : "25.5324993134",
          "kilometers" : "9819043",
          "miles" : "6101270.5"
        },
        "orbiting_body" : "Earth"
      } ],
      "orbital_data" : {
        "orbit_id" : "15",
        "orbit_determination_date" : "2017-04-06 08:55:51",
        "orbit_uncertainty" : "8",
        "minimum_orbit_intersection" : ".0532314",
        "jupiter_tisserand_invariant" : "5.742",
        "epoch_osculation" : "2455511.5",
        "eccentricity" : ".03015671553579461",
        "semi_major_axis" : "1.056871112830069",
        "inclination" : "24.71812076528166",
        "ascending_node_longitude" : "45.5862846732128",
        "orbital_period" : "396.854645363919",
        "perihelion_distance" : "1.024999351322454",
        "perihelion_argument" : "68.03687261579326",
        "aphelion_distance" : "1.088742874337684",
        "perihelion_time" : "2455582.505156689011",
        "mean_anomaly" : "295.5888693589475",
        "mean_motion" : ".9071331385572595",
        "equinox" : "J2000"
      }
    }, {
      "links" : {
        "self" : "https://api.nasa.gov/neo/rest/v1/neo/2010165?api_key=t0TVs3DtDT2H8Oy2Zy8m2eVrNsAVKAexjcZXUckd"
      },
      "neo_reference_id" : "2010165",
      "name" : "10165 (1995 BL2)",
      "nasa_jpl_url" : "http://ssd.jpl.nasa.gov/sbdb.cgi?sstr=2010165",
      "absolute_magnitude_h" : 17.3,
      "estimated_diameter" : {
        "kilometers" : {
          "estimated_diameter_min" : 0.9216265485,
          "estimated_diameter_max" : 2.0608196123
        },
        "meters" : {
          "estimated_diameter_min" : 921.6265485028,
          "estimated_diameter_max" : 2060.8196123208
        },
        "miles" : {
          "estimated_diameter_min" : 0.5726720101,
          "estimated_diameter_max" : 1.2805335433
        },
        "feet" : {
          "estimated_diameter_min" : 3023.70924539,
          "estimated_diameter_max" : 6761.2194168867
        }
      },
      "is_potentially_hazardous_asteroid" : false,
      "close_approach_data" : [ {
        "close_approach_date" : "2010-11-08",
        "epoch_date_close_approach" : 1289203200000,
        "relative_velocity" : {
          "kilometers_per_second" : "24.4638333374",
          "kilometers_per_hour" : "88069.8000145802",
          "miles_per_hour" : "54723.1487923929"
        },
        "miss_distance" : {
          "astronomical" : "0.4793818498",
          "lunar" : "186.4795379639",
          "kilometers" : "71714504",
          "miles" : "44561328"
        },
        "orbiting_body" : "Earth"
      } ],
      "orbital_data" : {
        "orbit_id" : "104",
        "orbit_determination_date" : "2017-04-06 09:29:56",
        "orbit_uncertainty" : "0",
        "minimum_orbit_intersection" : ".375572",
        "jupiter_tisserand_invariant" : "4.984",
        "epoch_osculation" : "2458000.5",
        "eccentricity" : ".5036969192312907",
        "semi_major_axis" : "1.234758600037682",
        "inclination" : "23.89340173752436",
        "ascending_node_longitude" : "312.4480961375718",
        "orbital_period" : "501.1543638808701",
        "perihelion_distance" : ".6128144972043599",
        "perihelion_argument" : "348.4316193993977",
        "aphelion_distance" : "1.856702702871003",
        "perihelion_time" : "2457967.294947440180",
        "mean_anomaly" : "23.85256875539582",
        "mean_motion" : ".7183415449328022",
        "equinox" : "J2000"
      }
    } ]
  }
}